*******************************************************************************
Ephemeris / WWW_USER Mon Mar 10 20:37:32 2025 Pasadena, USA      / Horizons    
*******************************************************************************
Target body name: (2018 RY7)                      {source: JPL#20}
Center body name: Earth (399)                     {source: DE441}
Center-site name: Gemini South Obs., Cerro Pachon
*******************************************************************************
Start time      : A.D. 2018-Sep-22 22:47:00.0000 UT      
Stop  time      : A.D. 2018-Sep-23 10:23:00.0000 UT      
Step-size       : 1 minutes
*******************************************************************************
Target pole/equ : undefined
Target radii    : undefined                                                    
Center geodetic : 289.2634, -30.2406227, 2.71233  {E-lon(deg),Lat(deg),Alt(km)}
Center cylindric: 289.2634,5517.21435,-3194.81213 {E-lon(deg),Dxy(km),Dz(km)}
Center pole/equ : ITRF93                          {East-longitude positive}
Center radii    : 6378.137, 6378.137, 6356.752 km {Equator_a, b, pole_c}       
Target primary  : Sun
Vis. interferer : MOON (R_eq= 1737.400) km        {source: DE441}
Rel. light bend : Sun                             {source: DE441}
Rel. lght bnd GM: 1.3271E+11 km^3/s^2                                          
Small-body perts: Yes                             {source: SB441-N16}
Atmos refraction: NO (AIRLESS)
RA format       : HMS
Time format     : CAL 
Calendar mode   : Mixed Julian/Gregorian
RTS-only print  : NO       
EOP file        : eop.250310.p250606                                           
EOP coverage    : DATA-BASED 1962-JAN-20 TO 2025-MAR-10. PREDICTS-> 2025-JUN-05
Units conversion: 1 au= 149597870.700 km, c= 299792.458 km/s, 1 day= 86400.0 s 
Table cut-offs 1: Elevation (-90.0deg=NO ),Airmass (>38.000=NO), Daylight (YES)
Table cut-offs 2: Solar elongation (  0.0,180.0=NO ),Local Hour Angle( 0.0=NO )
Table cut-offs 3: RA/DEC angular rate (     0.0=NO )                           
*******************************************************************************
Initial IAU76/J2000 heliocentric ecliptic osculating elements (au, days, deg.):
  EPOCH=  2458422.5 ! 2018-Oct-31.00 (TDB)         Residual RMS= .22459        
   EC= .1470549687381346   QR= .8667733479166969   TP= 2458516.8896767548      
   OM= 2.838668085760325   W=  136.9006026425241   IN= 13.35135890147074       
  Equivalent ICRF heliocentric cartesian coordinates (au, au/d):
   X= 8.791791513870114E-01  Y= 4.508422091141234E-01  Z= 3.244113040133835E-01
  VX=-1.085418916943652E-02 VY= 1.006005810562689E-02 VZ= 7.673980932675997E-03
Asteroid physical parameters (km, seconds, rotational period in hours):        
   GM= n.a.                RAD= n.a.               ROTPER= n.a.                
   H= 24.4                 G= .150                 B-V= n.a.                   
                           ALBEDO= n.a.            STYP= n.a.                  
*******************************************************************************
 Date__(UT)__HR:MN     R.A._________(ICRF)_________DEC
******************************************************
$$SOE
 2018-Sep-23 00:50  m  00 35 37.556271 -01 57 24.15781
 2018-Sep-23 00:51  m  00 35 37.288174 -01 57 21.34526
 2018-Sep-23 00:52  m  00 35 37.019993 -01 57 18.53261
 2018-Sep-23 00:53  m  00 35 36.751730 -01 57 15.71985
 2018-Sep-23 00:54  m  00 35 36.483383 -01 57 12.90700
 2018-Sep-23 00:55  m  00 35 36.214952 -01 57 10.09405
 2018-Sep-23 00:56  m  00 35 35.946439 -01 57 07.28100
 2018-Sep-23 00:57  m  00 35 35.677844 -01 57 04.46784
 2018-Sep-23 00:58  m  00 35 35.409165 -01 57 01.65458
 2018-Sep-23 00:59  m  00 35 35.140404 -01 56 58.84123
 2018-Sep-23 01:00  m  00 35 34.871561 -01 56 56.02777
 2018-Sep-23 01:01  m  00 35 34.602636 -01 56 53.21420
 2018-Sep-23 01:02  m  00 35 34.333629 -01 56 50.40054
 2018-Sep-23 01:03  m  00 35 34.064540 -01 56 47.58677
 2018-Sep-23 01:04  m  00 35 33.795369 -01 56 44.77291
 2018-Sep-23 01:05  m  00 35 33.526117 -01 56 41.95893
 2018-Sep-23 01:06  m  00 35 33.256783 -01 56 39.14486
 2018-Sep-23 01:07  m  00 35 32.987369 -01 56 36.33069
 2018-Sep-23 01:08  m  00 35 32.717873 -01 56 33.51641
 2018-Sep-23 01:09  m  00 35 32.448297 -01 56 30.70203
 2018-Sep-23 01:10  m  00 35 32.178640 -01 56 27.88754
 2018-Sep-23 01:11  m  00 35 31.908903 -01 56 25.07295
 2018-Sep-23 01:12  m  00 35 31.639085 -01 56 22.25826
 2018-Sep-23 01:13  m  00 35 31.369188 -01 56 19.44347
 2018-Sep-23 01:14  m  00 35 31.099210 -01 56 16.62857
 2018-Sep-23 01:15  m  00 35 30.829153 -01 56 13.81357
 2018-Sep-23 01:16  m  00 35 30.559016 -01 56 10.99846
 2018-Sep-23 01:17  m  00 35 30.288800 -01 56 08.18326
 2018-Sep-23 01:18  m  00 35 30.018505 -01 56 05.36794
 2018-Sep-23 01:19  m  00 35 29.748131 -01 56 02.55252
 2018-Sep-23 01:20  m  00 35 29.477679 -01 55 59.73700
 2018-Sep-23 01:21  m  00 35 29.207147 -01 55 56.92138
 2018-Sep-23 01:22  m  00 35 28.936538 -01 55 54.10565
 2018-Sep-23 01:23  m  00 35 28.665850 -01 55 51.28981
 2018-Sep-23 01:24  m  00 35 28.395084 -01 55 48.47387
 2018-Sep-23 01:25  m  00 35 28.124240 -01 55 45.65783
 2018-Sep-23 01:26  m  00 35 27.853319 -01 55 42.84168
 2018-Sep-23 01:27  m  00 35 27.582321 -01 55 40.02542
 2018-Sep-23 01:28  m  00 35 27.311245 -01 55 37.20906
 2018-Sep-23 01:29  m  00 35 27.040092 -01 55 34.39260
 2018-Sep-23 01:30  m  00 35 26.768863 -01 55 31.57602
 2018-Sep-23 01:31  m  00 35 26.497557 -01 55 28.75935
 2018-Sep-23 01:32  m  00 35 26.226174 -01 55 25.94257
 2018-Sep-23 01:33  m  00 35 25.954716 -01 55 23.12568
 2018-Sep-23 01:34  m  00 35 25.683181 -01 55 20.30868
 2018-Sep-23 01:35  m  00 35 25.411571 -01 55 17.49158
 2018-Sep-23 01:36  m  00 35 25.139886 -01 55 14.67438
 2018-Sep-23 01:37  m  00 35 24.868125 -01 55 11.85706
 2018-Sep-23 01:38  m  00 35 24.596289 -01 55 09.03964
 2018-Sep-23 01:39  m  00 35 24.324378 -01 55 06.22212
 2018-Sep-23 01:40  m  00 35 24.052392 -01 55 03.40449
 2018-Sep-23 01:41  m  00 35 23.780332 -01 55 00.58675
 2018-Sep-23 01:42  m  00 35 23.508198 -01 54 57.76890
 2018-Sep-23 01:43  m  00 35 23.235990 -01 54 54.95095
 2018-Sep-23 01:44  m  00 35 22.963708 -01 54 52.13289
 2018-Sep-23 01:45  m  00 35 22.691352 -01 54 49.31472
 2018-Sep-23 01:46  m  00 35 22.418923 -01 54 46.49645
 2018-Sep-23 01:47  m  00 35 22.146422 -01 54 43.67807
 2018-Sep-23 01:48  m  00 35 21.873847 -01 54 40.85958
 2018-Sep-23 01:49  m  00 35 21.601199 -01 54 38.04098
 2018-Sep-23 01:50  m  00 35 21.328480 -01 54 35.22228
 2018-Sep-23 01:51  m  00 35 21.055688 -01 54 32.40347
 2018-Sep-23 01:52  m  00 35 20.782824 -01 54 29.58455
 2018-Sep-23 01:53  m  00 35 20.509888 -01 54 26.76552
 2018-Sep-23 01:54  m  00 35 20.236881 -01 54 23.94639
 2018-Sep-23 01:55  m  00 35 19.963803 -01 54 21.12714
 2018-Sep-23 01:56  m  00 35 19.690654 -01 54 18.30779
 2018-Sep-23 01:57  m  00 35 19.417434 -01 54 15.48833
 2018-Sep-23 01:58  m  00 35 19.144143 -01 54 12.66876
 2018-Sep-23 01:59  m  00 35 18.870783 -01 54 09.84908
 2018-Sep-23 02:00  m  00 35 18.597352 -01 54 07.02930
 2018-Sep-23 02:01  m  00 35 18.323851 -01 54 04.20940
 2018-Sep-23 02:02  m  00 35 18.050281 -01 54 01.38940
 2018-Sep-23 02:03  m  00 35 17.776642 -01 53 58.56929
 2018-Sep-23 02:04  m  00 35 17.502933 -01 53 55.74906
 2018-Sep-23 02:05  m  00 35 17.229156 -01 53 52.92873
 2018-Sep-23 02:06  m  00 35 16.955310 -01 53 50.10829
 2018-Sep-23 02:07  m  00 35 16.681396 -01 53 47.28775
 2018-Sep-23 02:08  m  00 35 16.407414 -01 53 44.46709
 2018-Sep-23 02:09  m  00 35 16.133365 -01 53 41.64632
 2018-Sep-23 02:10  m  00 35 15.859247 -01 53 38.82544
 2018-Sep-23 02:11  m  00 35 15.585063 -01 53 36.00445
 2018-Sep-23 02:12  m  00 35 15.310811 -01 53 33.18336
 2018-Sep-23 02:13  m  00 35 15.036493 -01 53 30.36215
 2018-Sep-23 02:14  m  00 35 14.762108 -01 53 27.54083
 2018-Sep-23 02:15  m  00 35 14.487657 -01 53 24.71941
 2018-Sep-23 02:16  m  00 35 14.213140 -01 53 21.89787
 2018-Sep-23 02:17  m  00 35 13.938557 -01 53 19.07622
 2018-Sep-23 02:18  m  00 35 13.663909 -01 53 16.25447
 2018-Sep-23 02:19  m  00 35 13.389195 -01 53 13.43260
 2018-Sep-23 02:20  m  00 35 13.114417 -01 53 10.61062
 2018-Sep-23 02:21  m  00 35 12.839574 -01 53 07.78853
 2018-Sep-23 02:22  m  00 35 12.564667 -01 53 04.96634
 2018-Sep-23 02:23  m  00 35 12.289696 -01 53 02.14403
 2018-Sep-23 02:24  m  00 35 12.014660 -01 52 59.32161
 2018-Sep-23 02:25  m  00 35 11.739562 -01 52 56.49908
 2018-Sep-23 02:26  m  00 35 11.464400 -01 52 53.67643
 2018-Sep-23 02:27  m  00 35 11.189175 -01 52 50.85368
 2018-Sep-23 02:28  m  00 35 10.913887 -01 52 48.03082
 2018-Sep-23 02:29  m  00 35 10.638537 -01 52 45.20784
 2018-Sep-23 02:30  m  00 35 10.363124 -01 52 42.38476
 2018-Sep-23 02:31  m  00 35 10.087650 -01 52 39.56156
 2018-Sep-23 02:32  m  00 35 09.812114 -01 52 36.73825
 2018-Sep-23 02:33  m  00 35 09.536517 -01 52 33.91483
 2018-Sep-23 02:34  m  00 35 09.260859 -01 52 31.09130
 2018-Sep-23 02:35  m  00 35 08.985139 -01 52 28.26766
 2018-Sep-23 02:36  m  00 35 08.709360 -01 52 25.44390
 2018-Sep-23 02:37  m  00 35 08.433520 -01 52 22.62004
 2018-Sep-23 02:38  m  00 35 08.157620 -01 52 19.79606
 2018-Sep-23 02:39  m  00 35 07.881661 -01 52 16.97197
 2018-Sep-23 02:40  m  00 35 07.605643 -01 52 14.14777
 2018-Sep-23 02:41  m  00 35 07.329565 -01 52 11.32346
 2018-Sep-23 02:42  m  00 35 07.053428 -01 52 08.49903
 2018-Sep-23 02:43  m  00 35 06.777233 -01 52 05.67450
 2018-Sep-23 02:44  m  00 35 06.500980 -01 52 02.84985
 2018-Sep-23 02:45  m  00 35 06.224669 -01 52 00.02509
 2018-Sep-23 02:46  m  00 35 05.948301 -01 51 57.20021
 2018-Sep-23 02:47  m  00 35 05.671875 -01 51 54.37523
 2018-Sep-23 02:48  m  00 35 05.395392 -01 51 51.55013
 2018-Sep-23 02:49  m  00 35 05.118853 -01 51 48.72492
 2018-Sep-23 02:50  m  00 35 04.842257 -01 51 45.89959
 2018-Sep-23 02:51  m  00 35 04.565605 -01 51 43.07416
 2018-Sep-23 02:52  m  00 35 04.288897 -01 51 40.24861
